ONEWEB-0552             
1 56054U 23043J   26166.25561645  .00000123  00000+0  26705-3 0  9995
2 56054  87.9252 244.3682 0001825 100.1851 259.9489 13.21828431157974
ONEWEB-0553             
1 56055U 23043K   26166.13001299  .00000071  00000+0  15247-3 0  9998
2 56055  87.9096 229.1829 0002446  94.7609 265.3802 13.16594827158709
ONEWEB-0554             
1 56056U 23043L   26166.19335719  .00000552  00000+0  14105-2 0  9997
2 56056  87.9095 229.1790 0001943  82.5121 277.6231 13.16591085158694
ONEWEB-0555             
1 56057U 23043M   26166.23132515  .00000073  00000+0  15843-3 0  9991
2 56057  87.9100 229.1599 0002653  95.9596 264.1837 13.16596272158700
ONEWEB-0557             
1 56058U 23043N   26166.16959274  .00000179  00000+0  43567-3 0  9994
2 56058  87.9100 229.1822 0002815  73.6376 286.5064 13.16594486158692
ONEWEB-0558             
1 56059U 23043P   26166.24888847  .00000135  00000+0  29605-3 0  9990
2 56059  87.9254 244.3643 0002163 107.8638 252.2732 13.21827927157988
ONEWEB-0559             
1 56060U 23043Q   26166.23710932 -.00000022  00000+0 -83781-4 0  9993
2 56060  87.9256 244.3614 0001899 104.4334 255.7010 13.21826708157995
ONEWEB-0566             
1 56061U 23043R   26166.23039912  .00000150  00000+0  33125-3 0  9992
2 56061  87.9256 244.3609 0001875 108.0572 252.0766 13.21827142157977
ONEWEB-0568             
1 56062U 23043S   26166.18701465  .00000104  00000+0  23970-3 0  9992
2 56062  87.9099 229.1684 0002360  96.1849 263.9551 13.16594739158714
ONEWEB-0574             
1 56063U 23043T   26166.14796533  .00000129  00000+0  28182-3 0  9996
2 56063  87.9266 244.3800 0002075  93.8573 266.2798 13.21824637158001
ONEWEB-0575             
1 56064U 23043U   26166.18068317  .00000132  00000+0  31284-3 0  9994
2 56064  87.9099 229.1661 0002302  88.2979 271.8415 13.16594387158708
ONEWEB-0576             
1 56065U 23043V   26166.23767358  .00000191  00000+0  46719-3 0  9996
2 56065  87.9102 229.1625 0002161  92.1497 267.9882 13.16594487158701
ONEWEB-0577             
1 56066U 23043W   26166.16801599  .00000176  00000+0  42714-3 0  9999
2 56066  87.9100 229.1740 0002280  77.7050 282.4336 13.16593741158724
ONEWEB-0578             
1 56067U 23043X   26165.90742479 -.00000097  00000+0 -26553-3 0  9999
2 56067  87.9258 244.4260 0002348  97.7332 262.4068 13.21824742157932
ONEWEB-0579             
1 56068U 23043Y   26166.27750875 -.00000007  00000+0 -47834-4 0  9997
2 56068  87.9264 244.3493 0001752 100.6258 259.5074 13.21826398157995
ONEWEB-0581             
1 56069U 23043Z   26166.17433317  .00000142  00000+0  33781-3 0  9999
2 56069  87.9099 229.1840 0002089  81.6310 278.5058 13.16592569158695
ONEWEB-0609             
1 56070U 23043AA  26166.27994494 -.00000066  00000+0 -20906-3 0  9992
2 56070  87.9001 259.5914 0002026 102.7501 257.3856 13.15549112156185
ONEWEB-0613             
1 56071U 23043AB  26166.27755994 -.00000054  00000+0 -17699-3 0  9995
2 56071  87.9001 259.6041 0001759 106.1298 254.0026 13.15549739156189
ONEWEB-0630             
1 56072U 23043AC  26166.27280575  .00000011  00000+0 -58989-5 0  9995
2 56072  87.9007 259.5768 0001771 104.7730 255.3596 13.15546773156170
ONEWEB-0632             
1 56073U 23043AD  26166.26806752  .00000090  00000+0  20518-3 0  9997
2 56073  87.9004 259.5957 0001934  95.6938 264.4413 13.15548734156175
ONEWEB-0633             
1 56074U 23043AE  26166.26171688  .00000125  00000+0  29885-3 0  9996
2 56074  87.9011 259.5722 0001785 112.4327 247.6993 13.15546895156158
ONEWEB-0634             
1 56075U 23043AF  26166.24747002  .00000224  00000+0  56083-3 0  9994
2 56075  87.9002 259.6156 0002286 104.5030 255.6354 13.15548783156148
ONEWEB-0635             
1 56076U 23043AG  26166.31875553  .00000157  00000+0  38227-3 0  9991
2 56076  87.9011 259.5638 0001941  92.6851 267.4501 13.15550397156181
ONEWEB-0636             
1 56077U 23043AH  26166.31084905  .00000089  00000+0  20129-3 0  9991
2 56077  87.9007 259.5717 0001977  94.4849 265.6507 13.15549425156165
ONEWEB-0637             
1 56078U 23043AJ  26166.22845737  .00000049  00000+0  96851-4 0  9992
2 56078  87.8998 259.6048 0002266  96.7247 263.4141 13.15548754156176
ONEWEB-0647             
1 56079U 23043AK  26166.29976414 -.00000015  00000+0 -74976-4 0  9996
2 56079  87.9002 259.6031 0001831  97.9110 262.2228 13.15548405156171
ONEWEB-0651             
1 56080U 23043AL  26166.29500643 -.00000005  00000+0 -48041-4 0  9998
2 56080  87.8999 259.5976 0002099  94.4058 265.7312 13.15549129157373
ONEWEB-0718             
1 56081U 23043AM  26166.29023348 -.00000088  00000+0 -26670-3 0  9995
2 56081  87.9002 259.5794 0002348 110.4346 249.7036 13.15546587156182
STARLINK-6109           
1 56094U 23046B   26166.18058674 -.00000306  00000+0 -15684-5 0  9998
2 56094  43.0155 330.8007 0002755 269.4025  90.6511 15.27574992176942
STARLINK-6090           
1 56095U 23046C   26166.17288852 -.00000883  00000+0 -22566-4 0  9997
2 56095  42.9997 330.7449 0000850 267.1799  92.8955 15.27570496176942
