OBJECT_NAME,OBJECT_ID,EPOCH,MEAN_MOTION,ECCENTRICITY,INCLINATION,RA_OF_ASC_NODE,ARG_OF_PERICENTER,MEAN_ANOMALY,EPHEMERIS_TYPE,CLASSIFICATION_TYPE,NORAD_CAT_ID,ELEMENT_SET_NO,REV_AT_EPOCH,BSTAR,MEAN_MOTION_DOT,MEAN_MOTION_DDOT
ONEWEB-0552,2023-043J,2026-06-15T06:08:05.261280,13.21828431,.00018256,87.9252,244.3682,100.1851,259.9489,0,U,56054,999,15797,.26704881E-3,.123E-5,0
ONEWEB-0553,2023-043K,2026-06-15T03:07:13.122336,13.16594827,.00024467,87.9096,229.1829,94.7609,265.3802,0,U,56055,999,15870,.15247392E-3,.71E-6,0
ONEWEB-0554,2023-043L,2026-06-15T04:38:26.061216,13.16591085,.00019433,87.9095,229.1790,82.5121,277.6231,0,U,56056,999,15869,.14104829E-2,.552E-5,0
ONEWEB-0555,2023-043M,2026-06-15T05:33:06.492960,13.16596272,.00026535,87.9100,229.1599,95.9596,264.1837,0,U,56057,999,15870,.15842505E-3,.73E-6,0
ONEWEB-0557,2023-043N,2026-06-15T04:04:12.812736,13.16594486,.00028155,87.9100,229.1822,73.6376,286.5064,0,U,56058,999,15869,.43567138E-3,.179E-5,0
ONEWEB-0558,2023-043P,2026-06-15T05:58:23.963808,13.21827927,.00021639,87.9254,244.3643,107.8638,252.2732,0,U,56059,999,15798,.29605199E-3,.135E-5,0
ONEWEB-0559,2023-043Q,2026-06-15T05:41:26.245248,13.21826708,.0001899,87.9256,244.3614,104.4334,255.7010,0,U,56060,999,15799,-.83781121E-4,-.22E-6,0
ONEWEB-0566,2023-043R,2026-06-15T05:31:46.483968,13.21827142,.00018751,87.9256,244.3609,108.0572,252.0766,0,U,56061,999,15797,.33124713E-3,.15E-5,0
ONEWEB-0568,2023-043S,2026-06-15T04:29:18.065760,13.16594739,.00023606,87.9099,229.1684,96.1849,263.9551,0,U,56062,999,15871,.23970051E-3,.104E-5,0
ONEWEB-0574,2023-043T,2026-06-15T03:33:04.204512,13.21824637,.00020758,87.9266,244.3800,93.8573,266.2798,0,U,56063,999,15800,.2818181E-3,.129E-5,0
ONEWEB-0575,2023-043U,2026-06-15T04:20:11.025888,13.16594387,.00023027,87.9099,229.1661,88.2979,271.8415,0,U,56064,999,15870,.31283955E-3,.132E-5,0
ONEWEB-0576,2023-043V,2026-06-15T05:42:14.997312,13.16594487,.00021615,87.9102,229.1625,92.1497,267.9882,0,U,56065,999,15870,.46718865E-3,.191E-5,0
ONEWEB-0577,2023-043W,2026-06-15T04:01:56.581536,13.16593741,.00022809,87.9100,229.1740,77.7050,282.4336,0,U,56066,999,15872,.42713802E-3,.176E-5,0
ONEWEB-0578,2023-043X,2026-06-14T21:46:41.501856,13.21824742,.0002348,87.9258,244.4260,97.7332,262.4068,0,U,56067,999,15793,-.26553E-3,-.97E-6,0
ONEWEB-0579,2023-043Y,2026-06-15T06:39:36.756000,13.21826398,.0001752,87.9264,244.3493,100.6258,259.5074,0,U,56068,999,15799,-.47833968E-4,-.7E-7,0
ONEWEB-0581,2023-043Z,2026-06-15T04:11:02.385888,13.16592569,.00020891,87.9099,229.1840,81.6310,278.5058,0,U,56069,999,15869,.33780912E-3,.142E-5,0
ONEWEB-0609,2023-043AA,2026-06-15T06:43:07.242816,13.15549112,.00020268,87.9001,259.5914,102.7501,257.3856,0,U,56070,999,15618,-.20906252E-3,-.66E-6,0
ONEWEB-0613,2023-043AB,2026-06-15T06:39:41.178816,13.15549739,.00017596,87.9001,259.6041,106.1298,254.0026,0,U,56071,999,15618,-.17698531E-3,-.54E-6,0
ONEWEB-0630,2023-043AC,2026-06-15T06:32:50.416800,13.15546773,.00017716,87.9007,259.5768,104.7730,255.3596,0,U,56072,999,15617,-.5898875E-5,.11E-6,0
ONEWEB-0632,2023-043AD,2026-06-15T06:26:01.033728,13.15548734,.00019345,87.9004,259.5957,95.6938,264.4413,0,U,56073,999,15617,.20518365E-3,.9E-6,0
ONEWEB-0633,2023-043AE,2026-06-15T06:16:52.338432,13.15546895,.0001785,87.9011,259.5722,112.4327,247.6993,0,U,56074,999,15615,.29884641E-3,.125E-5,0
ONEWEB-0634,2023-043AF,2026-06-15T05:56:21.409728,13.15548783,.00022862,87.9002,259.6156,104.5030,255.6354,0,U,56075,999,15614,.56083474E-3,.224E-5,0
ONEWEB-0635,2023-043AG,2026-06-15T07:39:00.477792,13.15550397,.00019413,87.9011,259.5638,92.6851,267.4501,0,U,56076,999,15618,.38227215E-3,.157E-5,0
ONEWEB-0636,2023-043AH,2026-06-15T07:27:37.357920,13.15549425,.00019771,87.9007,259.5717,94.4849,265.6507,0,U,56077,999,15616,.20128973E-3,.89E-6,0
ONEWEB-0637,2023-043AJ,2026-06-15T05:28:58.716768,13.15548754,.00022663,87.8998,259.6048,96.7247,263.4141,0,U,56078,999,15617,.96851283E-4,.49E-6,0
ONEWEB-0647,2023-043AK,2026-06-15T07:11:39.621696,13.15548405,.00018315,87.9002,259.6031,97.9110,262.2228,0,U,56079,999,15617,-.74976424E-4,-.15E-6,0
ONEWEB-0651,2023-043AL,2026-06-15T07:04:48.555552,13.15549129,.0002099,87.8999,259.5976,94.4058,265.7312,0,U,56080,999,15737,-.48041126E-4,-.5E-7,0
ONEWEB-0718,2023-043AM,2026-06-15T06:57:56.172672,13.15546587,.00023489,87.9002,259.5794,110.4346,249.7036,0,U,56081,999,15618,-.26670348E-3,-.88E-6,0
STARLINK-6109,2023-046B,2026-06-15T04:20:02.694336,15.27574992,.00027558,43.0155,330.8007,269.4025,90.6511,0,U,56094,999,17694,-.1568441E-5,-.306E-5,0
STARLINK-6090,2023-046C,2026-06-15T04:08:57.568128,15.27570496,.00008504,42.9997,330.7449,267.1799,92.8955,0,U,56095,999,17694,-.22565747E-4,-.883E-5,0
